COSMOS 2529 [GLONASS-M] 
1 43687U 18086A   26058.37448306  .00000008  00000+0  00000+0 0  9993
2 43687  64.2955 196.2992 0007959 253.0448 106.8346  2.13101880 56941
COSMOS 2534 [GLONASS-M] 
1 44299U 19030A   26062.65441443 -.00000004  00000+0  00000+0 0  9991
2 44299  64.3688 196.1668 0009568 280.0385 257.7323  2.13102169 52670
COSMOS 2544 [GLONASS-M] 
1 44850U 19088A   26062.44551424  .00000024  00000+0  00000+0 0  9996
2 44850  65.5052  77.2588 0015744 259.4507 100.4201  2.13101810 48463
COSMOS 2545 [GLONASS-M] 
1 45358U 20018A   26062.64108890 -.00000049  00000+0  00000+0 0  9990
2 45358  64.4181 316.1306 0008257 250.5156 109.4558  2.13102285 46418
COSMOS 2547 [GLONASS-K] 
1 46805U 20075A   26061.42179443 -.00000012  00000+0  00000+0 0  9998
2 46805  64.5998 196.0353 0006707 229.5207 130.3796  2.13100073 41630
COSMOS 2557 [GLONASS-K] 
1 52984U 22075A   26062.52543027 -.00000052  00000+0  00000+0 0  9994
2 52984  64.3599 318.2098 0011629 283.5045  76.4245  2.13101658 28468
COSMOS 2559 [GLONASS-K] 
1 54031U 22130A   26059.99848280 -.00000049  00000+0  00000+0 0  9993
2 54031  64.3338 318.3857 0010601 182.1671 177.8809  2.13101169 26384
COSMOS 2564 [GLONASS-M] 
1 54377U 22161A   26061.71905072 -.00000011  00000+0  00000+0 0  9995
2 54377  64.7417 196.2427 0009386 209.4711 150.4350  2.13101914 25364
COSMOS 2569 [GLONASS-K2]
1 57517U 23114A   26062.20130409  .00000024  00000+0  00000+0 0  9995
2 57517  65.2411  76.1935 0012888 291.5477  68.3625  2.13103933 20006
COSMOS 2584 [GLONASS-K2]
1 63130U 25042A   26059.74188024  .00000039  00000+0  00000+0 0  9992
2 63130  65.0213  76.4877 0007822 236.2440 123.7373  2.13103267  7739
COSMOS 2596 [GLONASS-K1]
1 65590U 25206B   26062.63521083 -.00000053  00000+0  00000+0 0  9991
2 65590  64.6947 318.6620 0012898 315.4778 221.7374  2.13100238  3663
